OBJECT_NAME,OBJECT_ID,EPOCH,MEAN_MOTION,ECCENTRICITY,INCLINATION,RA_OF_ASC_NODE,ARG_OF_PERICENTER,MEAN_ANOMALY,EPHEMERIS_TYPE,CLASSIFICATION_TYPE,NORAD_CAT_ID,ELEMENT_SET_NO,REV_AT_EPOCH,BSTAR,MEAN_MOTION_DOT,MEAN_MOTION_DDOT
TIANQI-6,2020-076D,2026-07-17T11:23:30.339744,15.07358947,.0009541,34.9976,222.5540,76.4149,283.7623,0,U,46810,999,31315,.91051E-4,.1375E-4,0
KSM1-C,2020-081B,2026-07-17T13:33:38.280960,15.27196058,.0001453,36.8937,231.3336,139.8679,220.2178,0,U,46906,999,31381,.15595E-3,.4158E-4,0
KSM1-D,2020-081C,2026-07-17T13:00:47.249856,15.25115708,.0003217,36.8951,241.0782,167.8488,192.2338,0,U,46907,999,31373,.13449E-3,.3349E-4,0
KSM1-A,2020-081H,2026-07-17T12:26:51.955296,15.26390288,.0003665,36.8946,234.2465,218.8596,141.1890,0,U,46912,999,31381,.14559E-3,.378E-4,0
R2,2020-081J,2026-07-17T10:04:48.864000,15.25836593,.0008244,36.8964,234.9956,186.6617,173.4024,0,U,46913,999,31660,.1413E-3,.3605E-4,0
KSM1-B,2020-081K,2026-07-17T13:11:55.108032,15.24898582,.0005237,36.9002,241.7097,184.3439,175.7265,0,U,46914,999,31682,.11846E-3,.2919E-4,0
GONETS-M 20,2020-091A,2026-07-17T16:12:25.973568,12.42894710,.0022171,82.5052,283.4859,113.8147,246.5260,0,U,47227,999,25486,.65212E-3,.1E-5,0
GONETS-M 21,2020-091B,2026-07-17T15:35:01.121856,12.42887751,.0015931,82.4976,282.1903,126.9358,233.3183,0,U,47228,999,25485,.7958E-3,.12E-5,0
GONETS-M 22,2020-091C,2026-07-17T16:51:59.929344,12.42893652,.0023055,82.5033,283.0699,109.2829,251.0747,0,U,47229,999,25481,.14175E-3,.3E-6,0
CUBEL,2021-006AM,2026-07-17T14:27:50.076288,15.42060131,.0007803,97.2306,248.9152,75.7807,284.4307,0,U,47448,999,30444,.24169E-3,.1025E-3,0
ARKTIKA-M 1,2021-016A,2026-07-14T09:46:38.558208,2.00611590,.7297332,63.2662,53.6722,270.0591,14.4994,0,U,47719,999,3933,0,-.301E-5,0
STARLINK-2342,2021-021Z,2026-07-17T18:00:02.998944,15.94253835,.0009824,53.1510,353.4721,302.6292,248.4381,0,U,47883,999,603,.6991E-3,.265458E-2,.38343E-4
GRUS-1B,2021-022C,2026-07-17T18:06:06.330816,14.98781060,.0014487,97.5334,80.9316,207.6691,152.3763,0,U,47934,999,29047,.88671E-4,.1013E-4,0
UNISAT-7,2021-022P,2026-07-16T16:58:49.555200,15.41223595,.00076111,97.3855,102.9516,342.1120,17.9858,0,U,47945,999,29440,.20172257E-3,.83E-4,0
GLOBAL-9,2021-023G,2026-07-17T15:55:51.093120,15.47673813,.000378,44.9812,79.0820,186.1052,173.9793,0,U,47971,999,29966,.23377E-3,.12007E-3,0
AII-BRAVO,2021-034C,2026-07-17T02:26:27.179808,15.03679797,.0006434,97.5599,252.3306,155.3956,204.7578,0,U,48270,999,28411,.20394E-3,.2735E-4,0
TYVAK-182A,2021-034D,2026-07-17T10:08:53.678400,15.06416045,.0004956,97.5709,256.8179,210.1254,149.9689,0,U,48271,999,28438,.14329E-3,.2051E-4,0
CSS (TIANHE),2021-035A,2026-07-17T12:32:16.126368,15.58143309,.0001921,41.4691,137.7269,301.5742,58.4908,0,U,48274,999,29790,.18813E-4,.1129E-4,0
TYVAK-0130,2021-041BF,2026-07-17T12:43:00.329088,15.27957773,.0008431,52.9944,245.1289,267.9022,92.1010,0,U,48606,999,28502,.14329E-3,.3613E-4,0
HAIYANG-2D,2021-043A,2026-07-17T17:29:12.427584,13.83374304,.0011605,65.9962,228.6626,265.5368,94.4375,0,U,48621,999,26077,.95006E-4,.23E-6,0
2021-050D,2021-050D,2026-07-17T17:54:24.761952,15.23612768,.0006551,97.3324,274.0899,145.0919,215.0749,0,U,48843,999,28361,.20824E-3,.4919E-4,0
TYVAK-0173,2021-059P,2026-07-17T02:38:29.827680,14.81974577,.0007173,96.0072,267.0284,291.7524,68.2931,0,U,48892,999,27267,.1005E-3,.765E-5,0
MANDRAKE 2 ABLE,2021-059AE,2026-07-17T11:19:22.332000,15.56134203,.0003932,97.7025,30.5925,223.3139,136.7806,0,U,48907,999,28183,.18416E-3,.12766E-3,0
MANDRAKE 2 BAKER,2021-059AF,2026-07-17T01:19:07.679136,15.61037799,.0002859,97.6987,33.2299,210.3839,149.7252,0,U,48908,999,28195,.20162E-3,.16836E-3,0
PACE-1,2021-059AG,2026-07-17T12:02:38.888736,15.85708865,.0003589,97.6722,40.1977,178.0072,182.1213,0,U,48909,999,28259,.31525E-3,.76469E-3,0
YAM-3,2021-059AN,2026-07-17T16:33:18.992160,15.49182299,.0004082,97.6995,27.6534,229.2209,130.8687,0,U,48915,999,28171,.11996E-3,.643E-4,0
FARADAY_PHOENIX,2021-059AX,2026-07-17T11:53:10.851072,15.87740459,.0006022,97.6773,40.1104,194.6843,165.4254,0,U,48924,999,28245,.51722E-3,.139684E-2,0
DEMO8 (TENZING),2021-059CA,2026-07-17T06:46:24.838752,15.56081331,.000584,97.7010,34.0172,222.1613,137.9192,0,U,48951,999,28198,.18173E-3,.12576E-3,0
FENGYUN 3E,2021-062A,2026-07-17T17:07:56.690976,14.19905782,.0002134,98.7498,201.7825,34.5812,325.5503,0,U,49008,999,26091,-.31482E-4,-.111E-5,0
