TIANQI-6                
1 46810U 20076D   26198.47465671  .00001375  00000+0  91051-4 0  9995
2 46810  34.9976 222.5540 0009541  76.4149 283.7623 15.07358947313152
KSM1-C                  
1 46906U 20081B   26198.56502640  .00004158  00000+0  15595-3 0  9995
2 46906  36.8937 231.3336 0001453 139.8679 220.2178 15.27196058313812
KSM1-D                  
1 46907U 20081C   26198.54221354  .00003349  00000+0  13449-3 0  9991
2 46907  36.8951 241.0782 0003217 167.8488 192.2338 15.25115708313739
KSM1-A                  
1 46912U 20081H   26198.51865689  .00003780  00000+0  14559-3 0  9991
2 46912  36.8946 234.2465 0003665 218.8596 141.1890 15.26390288313819
R2                      
1 46913U 20081J   26198.42001000  .00003605  00000+0  14130-3 0  9992
2 46913  36.8964 234.9956 0008244 186.6617 173.4024 15.25836593316606
KSM1-B                  
1 46914U 20081K   26198.54994338  .00002919  00000+0  11846-3 0  9999
2 46914  36.9002 241.7097 0005237 184.3439 175.7265 15.24898582316820
GONETS-M 20             
1 47227U 20091A   26198.67530062  .00000100  00000+0  65212-3 0  9998
2 47227  82.5052 283.4859 0022171 113.8147 246.5260 12.42894710254861
GONETS-M 21             
1 47228U 20091B   26198.64931854  .00000120  00000+0  79580-3 0  9995
2 47228  82.4976 282.1903 0015931 126.9358 233.3183 12.42887751254851
GONETS-M 22             
1 47229U 20091C   26198.70277696  .00000030  00000+0  14175-3 0  9999
2 47229  82.5033 283.0699 0023055 109.2829 251.0747 12.42893652254818
CUBEL                   
1 47448U 21006AM  26198.60266292  .00010250  00000+0  24169-3 0  9997
2 47448  97.2306 248.9152 0007803  75.7807 284.4307 15.42060131304445
ARKTIKA-M 1             
1 47719U 21016A   26195.40739072 -.00000301  00000+0  00000+0 0  9996
2 47719  63.2662  53.6722 7297332 270.0591  14.4994  2.00611590 39330
STARLINK-2342           
1 47883U 21021Z   26198.75003471  .00265458  38343-4  69910-3 0  9992
2 47883  53.1510 353.4721 0009824 302.6292 248.4381 15.94253835  6033
GRUS-1B                 
1 47934U 21022C   26198.75423994  .00001013  00000+0  88671-4 0  9991
2 47934  97.5334  80.9316 0014487 207.6691 152.3763 14.98781060290475
UNISAT-7                
1 47945U 21022P   26197.70751800  .00008300  00000+0  20172-3 0  9994
2 47945  97.3855 102.9516 0007611 342.1120  17.9858 15.41223595294404
GLOBAL-9                
1 47971U 21023G   26198.66378580  .00012007  00000+0  23377-3 0  9999
2 47971  44.9812  79.0820 0003780 186.1052 173.9793 15.47673813299661
AII-BRAVO               
1 48270U 21034C   26198.10170347  .00002735  00000+0  20394-3 0  9997
2 48270  97.5599 252.3306 0006434 155.3956 204.7578 15.03679797284112
TYVAK-182A              
1 48271U 21034D   26198.42284350  .00002051  00000+0  14329-3 0  9995
2 48271  97.5709 256.8179 0004956 210.1254 149.9689 15.06416045284381
CSS (TIANHE)            
1 48274U 21035A   26198.52240887  .00001129  00000+0  18813-4 0  9995
2 48274  41.4691 137.7269 0001921 301.5742  58.4908 15.58143309297902
TYVAK-0130              
1 48606U 21041BF  26198.52986492  .00003613  00000+0  14329-3 0  9997
2 48606  52.9944 245.1289 0008431 267.9022  92.1010 15.27957773285027
HAIYANG-2D              
1 48621U 21043A   26198.72861606  .00000023  00000+0  95006-4 0  9991
2 48621  65.9962 228.6626 0011605 265.5368  94.4375 13.83374304260770
2021-050D               
1 48843U 21050D   26198.74611993  .00004919  00000+0  20824-3 0  9992
2 48843  97.3324 274.0899 0006551 145.0919 215.0749 15.23612768283611
TYVAK-0173              
1 48892U 21059P   26198.11006745  .00000765  00000+0  10050-3 0  9994
2 48892  96.0072 267.0284 0007173 291.7524  68.2931 14.81974577272670
MANDRAKE 2 ABLE         
1 48907U 21059AE  26198.47178625  .00012766  00000+0  18416-3 0  9995
2 48907  97.7025  30.5925 0003932 223.3139 136.7806 15.56134203281837
MANDRAKE 2 BAKER        
1 48908U 21059AF  26198.05494999  .00016836  00000+0  20162-3 0  9998
2 48908  97.6987  33.2299 0002859 210.3839 149.7252 15.61037799281958
PACE-1                  
1 48909U 21059AG  26198.50183899  .00076469  00000+0  31525-3 0  9996
2 48909  97.6722  40.1977 0003589 178.0072 182.1213 15.85708865282590
YAM-3                   
1 48915U 21059AN  26198.68980315  .00006430  00000+0  11996-3 0  9991
2 48915  97.6995  27.6534 0004082 229.2209 130.8687 15.49182299281713
FARADAY_PHOENIX         
1 48924U 21059AX  26198.49526448  .00139684  00000+0  51722-3 0  9992
2 48924  97.6773  40.1104 0006022 194.6843 165.4254 15.87740459282451
DEMO8 (TENZING)         
1 48951U 21059CA  26198.28223193  .00012576  00000+0  18173-3 0  9993
2 48951  97.7010  34.0172 0005840 222.1613 137.9192 15.56081331281987
FENGYUN 3E              
1 49008U 21062A   26198.71385059 -.00000111  00000+0 -31482-4 0  9992
2 49008  98.7498 201.7825 0002134  34.5812 325.5503 14.19905782260913
